#dP2021  7 26  6  0  0.00000000      96 __u+U ITR00 EXT  IAC
## 2168 108000.00000000   900.00000000 59421 0.2500000000000
+  117   C06C07C08C09C10C11C12C13C14C16C19C20C21C22C23C24C25
+        C26C27C28C29C30C32C33C34C35C36C37C38C39C40C41C42C43
+        C44C45C46E01E02E03E04E05E07E08E09E11E12E13E14E15E18
+        E19E21E24E25E26E27E30E31E33E36G01G02G03G04G05G06G07
+        G08G09G10G11G12G13G14G15G16G17G18G19G20G21G22G23G24
+        G25G26G27G28G29G30G31G32J01J02J03R01R02R03R04R05R07
+        R08R09R11R12R13R14R15R16R17R18R19R20R21R22R24  0  0
++        11  8  8 10 10  8  9 10 10 10  9  9  8  8  8 10  9
++        10  8  8  8  8  9 10 10 10  9 10 10 10 11  9  9 10
++        10  9  8  8  8  9  9  9  8 10  8  8  9  8  8  9  8
++         8  9  9  8  8  9  9  9  8  8  8  8  8  8  8  7  8
++         7  8  9  8  9  8  8  8  8  8  8  8  8  8  8  9  8
++         9  8  8  8  7  8  8  8 11 10 10 10  9  8  8  9  9
++         9  9  9  8  8  9  8  8  8  8  8 10  8 10  8  0  0
%c M  cc GPS ccc cccc cccc cccc cccc ccccc ccccc ccccc ccccc
%c cc cc ccc ccc cccc cccc cccc cccc ccccc ccccc ccccc ccccc
%f  0.0000000  0.000000000  0.00000000000  0.000000000000000
%f  0.0000000  0.000000000  0.00000000000  0.000000000000000
%i    0    0    0    0      0      0      0      0         0
%i    0    0    0    0      0      0      0      0         0
/* IAC                                ULTRA-RAPID PREDICTION
/* S/V CLOCKS ARE ALIGNED TO GNSS TIME                      
/* G:C1WC2W R:C1PC2P E:C1XC5X C:C2IC6I J:C1CC2S             
/* PCV:IGS14_2163 OL/AL:FES2004  NONE     YN ORB:CoN CLK:CoN
*  2021 07 26 10 30  0.00000000
PC06  -7955.643832  35905.157635  21558.485715    673.538673
PC07 -15981.076111  22835.728071 -31434.211375     80.124481
PC08 -23628.807667  32633.575418  11849.243203   -910.053421
PC09   1269.992261  41594.045794   8459.508665    345.027182
PC10  -1506.262755  26563.084818 -32434.020808    -14.856954
PC11  10552.120814  23201.113765  11362.056816    480.011283
PC12   -230.881938  27191.083813  -6181.835512    800.170345
PC13 -12299.671011  33188.834388  22812.161728    350.553718
PC14  18761.077636  16434.308731  12477.970339    773.309668
PC16  -5797.338149  36808.252046  20080.008992   -896.216922
PC19 -24922.350691 -12079.756415  -3492.837865    923.185896
PC20 -11526.973062 -17798.341129 -18144.710544   -834.841366
PC21  -9592.231674  13116.329945  22705.022878   -937.007551
PC22 -24339.655146    764.504261  13658.926619   -948.721906
PC23  24067.817480 -10469.385889  -9463.251831   -965.881023
PC24   -491.295272  19054.082370 -20374.242971   -958.235719
PC25  17495.669780   5068.704791 -21146.599135   -880.057738
PC26 -15997.668262  21236.105365  -8426.284071    873.397040
PC27   6639.634132 -23087.984269  14166.027125    570.557716
PC28  15146.932381  -5408.264794  22803.702834    -46.095083
PC29 -15330.031028 -14843.841915 -17995.401543    424.674099
PC30  -6383.954826 -27070.132148  -2173.752304    475.335284
PC32   9490.836474 -13187.843348 -22673.444196   -926.342462
PC33  24918.536959  12008.799310   3609.417738   -947.527118
PC34   6798.897205  26917.938825   2904.590934   -619.478505
PC35 -15122.102264   5527.187224 -22804.993608   -169.427288
PC36 -17092.224259  -5835.165116  21305.654023   -736.348860
PC37  17159.162255 -20671.706258   7601.821544   -862.998650
PC38 -21602.662786  33847.757626  12608.567590    164.272770
PC39  -2942.028998  37225.553602  19745.969157     32.618347
PC40  -5929.062464  21660.980128 -35652.283224    184.194427
PC41  24484.675322   -588.986034 -13329.850043   -966.799233
PC42  10625.797956  17870.176488  18646.637235   -923.819980
PC43  15195.876560  15460.302106  17571.513810   -838.762540
PC44  -6075.751839  23205.626381 -14296.470394    308.749954
PC45 -24020.962453  10644.886271   9392.113231    503.636243
PC46   -539.269779 -18511.128312  20897.729724    161.466291
PE01 -20415.185109  -9335.879298  19300.450232  -1158.165377
PE02  20540.395701   9244.879836 -19204.120656    235.542996
PE03  21279.392573  20195.838478  -3870.999840   -456.794084
PE04 -21912.348485  -4166.296988  19470.097480   -821.437543
PE05   8135.619644  24630.302095  14260.313395   -262.220277
PE07   9574.410265 -14667.128795 -23855.023935   -566.204919
PE08  21715.559229   3791.769073 -19743.684313   5964.292267
PE09  -9272.705257  14743.596258  23937.985758   5587.608498
PE11 -14307.908629  24312.398512  -8998.756017   5666.865547
PE12 -17777.960230   5990.016302 -22907.751552   5092.120927
PE13  14380.725087 -24098.258649   9410.654491    419.498910
PE14    751.746252 -22247.054067  13254.062816  -1513.452396
PE15  17686.279961  -6091.968580  22938.309467    801.436505
PE18 -11300.477561  18282.553401 -22140.756779  -1659.117152
PE19 -20300.457985 -21477.716952   1683.672622    336.362055
PE21   -676.612703 -16687.875342  24442.778991   -678.385719
PE24 -21124.335518  14351.525860 -14956.944686  -1028.444824
PE25    421.206232  16716.869717 -24412.729026   -541.200735
PE26   2043.911508 -27646.023923 -10392.515688   1535.240794
PE27  20323.149548 -14756.604468  15676.159568    -83.980521
PE30  29236.486677  -3305.021210  -3278.652832   2753.328447
PE31 -29223.229902   4147.821770   2267.029004   -483.680759
PE33 -10571.010737 -15454.304927 -22927.872135   -467.150387
PE36  -2629.417762  27873.750344   9607.495420   -239.650182
PG01  13985.488223 -22272.307937   1705.337220    616.720962
PG02 -16933.562622   4685.395124 -19289.329987   -622.175603
PG03  15905.275002 -12206.693708 -17455.961464   -232.610888
PG04   5532.185963 -17565.471079 -19109.312195   -203.044685
PG05 -24535.784931   6764.990222   7730.718789    -49.089984
PG06 -12149.543501  -8305.244911 -22050.189256     45.813050
PG07   3501.564817 -23413.421454  11886.620873    211.105986
PG08  13015.914871  -7613.779562  21853.904156    -30.209886
PG09  -4911.534876 -23408.876591 -11586.154080   -356.841313
PG10  16036.772932  11878.757414  17778.735353   -169.663454
PG11 -17742.888818   2250.671177 -19651.011549     23.809990
PG12 -16903.846703  10981.213603 -17475.777972    -73.940816
PG13 -16248.094236  -1431.754917  20855.050588    162.744621
PG14 -15870.731772 -12574.358064  17208.420158     38.429331
PG15 -12493.707623   9525.481061  21041.732037   -132.863462
PG16  26695.363207    481.843626   2192.181988   -363.294355
PG17 -12957.176553 -23120.412282  -1235.814276    479.620108
PG18  -2227.623768  22565.319683  13750.309238    338.155529
PG19 -16411.675925 -18128.964039 -10823.663276     31.300297
PG20 -26012.568697    920.484887  -4554.565738    519.988979
PG21  16609.940175 -17652.819110  10921.791451    133.547228
PG22  21748.459203 -10477.552895 -10668.210088   -554.079453
PG23   3597.667201  14875.844884  21688.736175     79.405709
PG24 -15062.801455  20438.095701   6811.447042    187.871284
PG25  -4803.945291  15142.256266 -21511.256845    180.165447
PG26  24631.717949   5056.677929  -9026.223137    115.143220
PG27  17653.727752   3872.335577  19408.800151   -168.730383
PG28 -20259.063723 -10908.497191  13645.374035    531.217272
PG29   1877.727420  23040.314374 -13072.902642   -386.259353
PG30  -6626.945049 -16894.036840  19385.797906   -455.131334
PG31  14023.684654   6449.445090 -21716.859271   -130.756095
PG32  16094.751890  20817.423279  -4133.138575     11.896569
PJ01 -26850.448676  21187.521785  29709.714154   -424.244910
PJ02 -35861.186260  17919.782071  -8583.651582     -1.048413
PJ03 -19319.390273  29039.168558 -18996.030828     -0.354846
PR01   9665.589742  15585.371245  17724.001098     82.873299
PR02  21851.202158  13188.462414   -905.320889    487.459162
PR03  19065.450455   2428.281111 -16757.452848     40.200783
PR04   5449.124276  -9332.706673 -23078.190637     97.498410
PR05 -11036.560921 -15997.440703 -16497.375239     76.021216
PR07 -18632.528916  -1862.323717  17336.103325    -41.889048
PR08  -5428.381681   9523.609537  23087.691671    -60.098888
PR09 -16423.389918  -1839.836483  19479.325728      4.864420
PR11 -16754.826454  15530.161056 -11348.607672     45.111847
PR12   -236.123613  12262.442806 -22331.804364    248.443228
PR13  15682.891677   2200.638392 -20003.671944    -58.270964
PR14  22993.469693  -9651.526871  -5300.917290     66.928927
PR15  16498.345941 -15409.566609  11895.135007    102.478170
PR16  -1151.752053 -11975.483613  22491.387897    -18.496746
PR17  10413.941653  -6254.057795  22437.534604    444.351157
PR18   6450.728064 -21275.123061  12472.039141     84.744908
PR19    170.764630 -25299.041879  -3303.121008   -152.974215
PR20  -7975.194140 -13694.598711 -19975.031251    -53.086763
PR21 -10250.692599   7508.267702 -22119.415946   -226.729013
PR22  -6169.215677  21934.434547 -11581.217079   -124.596428
PR24   8824.654495  12901.033965  20160.822917     51.990066
EOF
